ZipCode,City,County
94203,Sacramento,Sacramento County
94204,Sacramento,Sacramento County
94205,Sacramento,Sacramento County
94206,Sacramento,Sacramento County
94207,Sacramento,Sacramento County
94208,Sacramento,Sacramento County
94209,Sacramento,Sacramento County
94211,Sacramento,Sacramento County
94229,Sacramento,Sacramento County
94230,Sacramento,Sacramento County
94232,Sacramento,Sacramento County
94234,Sacramento,Sacramento County
94235,Sacramento,Sacramento County
94236,Sacramento,Sacramento County
94237,Sacramento,Sacramento County
94239,Sacramento,Sacramento County
94240,Sacramento,Sacramento County
94243,Sacramento,Sacramento County
94244,Sacramento,Sacramento County
94245,Sacramento,Sacramento County
94246,Sacramento,Sacramento County
94247,Sacramento,Sacramento County
94248,Sacramento,Sacramento County
94249,Sacramento,Sacramento County
94250,Sacramento,Sacramento County
94252,Sacramento,Sacramento County
94253,Sacramento,Sacramento County
94254,Sacramento,Sacramento County
94256,Sacramento,Sacramento County
94257,Sacramento,Sacramento County
94258,Sacramento,Sacramento County
94259,Sacramento,Sacramento County
94261,Sacramento,Sacramento County
94262,Sacramento,Sacramento County
94263,Sacramento,Sacramento County
94267,Sacramento,Sacramento County
94268,Sacramento,Sacramento County
94269,Sacramento,Sacramento County
94271,Sacramento,Sacramento County
94273,Sacramento,Sacramento County
94274,Sacramento,Sacramento County
94277,Sacramento,Sacramento County
94278,Sacramento,Sacramento County
94279,Sacramento,Sacramento County
94280,Sacramento,Sacramento County
94282,Sacramento,Sacramento County
94283,Sacramento,Sacramento County
94284,Sacramento,Sacramento County
94285,Sacramento,Sacramento County
94286,Sacramento,Sacramento County
94287,Sacramento,Sacramento County
94288,Sacramento,Sacramento County
94289,Sacramento,Sacramento County
94290,Sacramento,Sacramento County
94291,Sacramento,Sacramento County
94293,Sacramento,Sacramento County
94294,Sacramento,Sacramento County
94295,Sacramento,Sacramento County
94296,Sacramento,Sacramento County
94297,Sacramento,Sacramento County
94298,Sacramento,Sacramento County
94299,Sacramento,Sacramento County
95608,Carmichael,Sacramento County
95609,Carmichael,Sacramento County
95610,Citrus Heights,Sacramento County
95611,Citrus Heights,Sacramento County
95615,Courtland,Sacramento County
95621,Citrus Heights,Sacramento County
95624,Elk Grove,Sacramento County
95626,Elverta,Sacramento County
95628,Fair Oaks,Sacramento County
95630,Folsom,Sacramento County
95632,Galt,Sacramento County
95638,Herald,Sacramento County
95639,Hood,Sacramento County
95641,Isleton,Sacramento County
95652,Mcclellan,Sacramento County
95655,Mather,Sacramento County
95660,North Highlands,Sacramento County
95662,Citrus Heights,Sacramento County
95662,Orangevale,Sacramento County
95670,Gold River,Sacramento County
95670,Rancho Cordova,Sacramento County
95673,Rio Linda,Sacramento County
95680,Ryde,Sacramento County
95683,Rancho Murieta,Sacramento County
95683,Sloughhouse,Sacramento County
95690,Walnut Grove,Sacramento County
95693,Wilton,Sacramento County
95741,Rancho Cordova,Sacramento County
95742,Rancho Cordova,Sacramento County
95758,Elk Grove,Sacramento County
95759,Elk Grove,Sacramento County
95763,Folsom,Sacramento County
95812,Sacramento,Sacramento County
95813,Sacramento,Sacramento County
95814,Sacramento,Sacramento County
95815,Sacramento,Sacramento County
95816,Sacramento,Sacramento County
95817,Sacramento,Sacramento County
95818,Sacramento,Sacramento County
95819,Sacramento,Sacramento County
95820,Sacramento,Sacramento County
95821,Sacramento,Sacramento County
95822,Sacramento,Sacramento County
95823,Sacramento,Sacramento County
95824,Sacramento,Sacramento County
95825,Sacramento,Sacramento County
95826,Sacramento,Sacramento County
95827,Sacramento,Sacramento County
95828,Sacramento,Sacramento County
95829,Sacramento,Sacramento County
95830,Sacramento,Sacramento County
95831,Sacramento,Sacramento County
95832,Sacramento,Sacramento County
95833,Sacramento,Sacramento County
95834,Sacramento,Sacramento County
95835,Sacramento,Sacramento County
95836,Sacramento,Sacramento County
95837,Sacramento,Sacramento County
95838,Sacramento,Sacramento County
95841,Sacramento,Sacramento County
95842,Sacramento,Sacramento County
95843,Antelope,Sacramento County
95843,Sacramento,Sacramento County
95851,Sacramento,Sacramento County
95852,Sacramento,Sacramento County
95853,Sacramento,Sacramento County
95860,Sacramento,Sacramento County
95864,Sacramento,Sacramento County
95865,Sacramento,Sacramento County
95866,Sacramento,Sacramento County
